{
    "links": {
        "self": "http://www.neowsapp.com/rest/v1/neo/3841952?api_key=iIulBulltgU6a56xZRHN4H3l9WmuAYTsLGpBGhQ2"
    },
    "id": "3841952",
    "neo_reference_id": "3841952",
    "name": "(2019 JU7)",
    "designation": "2019 JU7",
    "nasa_jpl_url": "http://ssd.jpl.nasa.gov/sbdb.cgi?sstr=3841952",
    "absolute_magnitude_h": 22.0,
    "estimated_diameter": {
        "kilometers": {
            "estimated_diameter_min": 0.1058168859,
            "estimated_diameter_max": 0.2366137501
        },
        "meters": {
            "estimated_diameter_min": 105.8168859331,
            "estimated_diameter_max": 236.6137501138
        },
        "miles": {
            "estimated_diameter_min": 0.0657515442,
            "estimated_diameter_max": 0.1470249225
        },
        "feet": {
            "estimated_diameter_min": 347.1682720448,
            "estimated_diameter_max": 776.2918559233
        }
    },
    "is_potentially_hazardous_asteroid": false,
    "close_approach_data": [
        {
            "close_approach_date": "2019-04-30",
            "close_approach_date_full": "2019-Apr-30 23:07",
            "epoch_date_close_approach": 1556665620000,
            "relative_velocity": {
                "kilometers_per_second": "22.3545366147",
                "kilometers_per_hour": "80476.3318127429",
                "miles_per_hour": "50004.8629533124"
            },
            "miss_distance": {
                "astronomical": "0.1974667554",
                "lunar": "76.8145678506",
                "kilometers": "29540606.003650998",
                "miles": "18355681.4064118524"
            },
            "orbiting_body": "Earth"
        }
    ],
    "orbital_data": {
        "orbit_id": "1",
        "orbit_determination_date": "2019-05-24 09:42:11",
        "first_observation_date": "2019-05-13",
        "last_observation_date": "2019-05-24",
        "data_arc_in_days": 11,
        "observations_used": 40,
        "orbit_uncertainty": "8",
        "minimum_orbit_intersection": ".190973",
        "jupiter_tisserand_invariant": "4.115",
        "epoch_osculation": "2458621.5",
        "eccentricity": ".727278905478826",
        "semi_major_axis": "1.533146900636801",
        "inclination": "14.53646520646883",
        "ascending_node_longitude": "89.23451880159888",
        "orbital_period": "693.3844230340569",
        "perihelion_distance": ".4181215008034138",
        "perihelion_argument": "18.0988242676984",
        "aphelion_distance": "2.648172300470187",
        "perihelion_time": "2458554.018597710091",
        "mean_anomaly": "35.03583873151708",
        "mean_motion": ".51919251145669",
        "equinox": "J2000",
        "orbit_class": {
            "orbit_class_type": "APO",
            "orbit_class_description": "Near-Earth asteroid orbits which cross the Earth’s orbit similar to that of 1862 Apollo",
            "orbit_class_range": "a (semi-major axis) > 1.0 AU; q (perihelion) < 1.017 AU"
        }
    },
    "is_sentry_object": false
}